start=new Date('2023-05-09T00:00:00.000Z').valueOf();
sats=[{"TLE_LINE2":"2 51464  53.2157 249.8640 0001142  78.0617 282.0503 15.08850716 70924","LAUNCH_DATE":"2022-02-03","MEAN_ANOMALY":"282.0503","MEAN_ELEMENT_THEORY":"SGP4","TIME_SYSTEM":"UTC","ELEMENT_SET_NO":"999","FILE":"3904305","MEAN_MOTION_DOT":"0.00002497","EPHEMERIS_TYPE":"0","CENTER_NAME":"EARTH","SEMIMAJOR_AXIS":"6917.848","COUNTRY_CODE":"US","CLASSIFICATION_TYPE":"U","EPOCH":"2023-05-08T16:44:57.034176","INCLINATION":"53.2157","OBJECT_TYPE":"PAYLOAD","BSTAR":"0.00017487000000","ECCENTRICITY":"0.00011420","OBJECT_NAME":"STARLINK-3189","RA_OF_ASC_NODE":"249.8640","MEAN_MOTION_DDOT":"0.0000000000000","DECAY_DATE":null,"APOAPSIS":"540.503","REF_FRAME":"TEME","PERIOD":"95.437","RCS_SIZE":"LARGE","GP_ID":"231474624","TLE_LINE1":"1 51464U 22010J   23128.69788234  .00002497  00000-0  17487-3 0  9990","PERIAPSIS":"538.923","REV_AT_EPOCH":"7092","OBJECT_ID":"2022-010J","ARG_OF_PERICENTER":"78.0617","SITE":"AFETR","MEAN_MOTION":"15.08850716","NORAD_CAT_ID":"51464"},{"NORAD_CAT_ID":"51465","MEAN_MOTION":"15.08849350","ARG_OF_PERICENTER":"65.2024","SITE":"AFETR","OBJECT_ID":"2022-010K","REV_AT_EPOCH":"7091","TLE_LINE1":"1 51465U 22010K   23128.62796449  .00004716  00000-0  31409-3 0  9997","PERIAPSIS":"539.401","GP_ID":"231475380","RCS_SIZE":"LARGE","PERIOD":"95.437","REF_FRAME":"TEME","APOAPSIS":"540.032","DECAY_DATE":null,"MEAN_MOTION_DDOT":"0.0000000000000","RA_OF_ASC_NODE":"250.1795","OBJECT_NAME":"STARLINK-3401","ECCENTRICITY":"0.00004560","BSTAR":"0.00031409000000","OBJECT_TYPE":"PAYLOAD","INCLINATION":"53.2147","EPOCH":"2023-05-08T15:04:16.131936","CLASSIFICATION_TYPE":"U","COUNTRY_CODE":"US","SEMIMAJOR_AXIS":"6917.852","CENTER_NAME":"EARTH","EPHEMERIS_TYPE":"0","MEAN_MOTION_DOT":"0.00004716","FILE":"3904305","LAUNCH_DATE":"2022-02-03","MEAN_ELEMENT_THEORY":"SGP4","MEAN_ANOMALY":"294.9015","TIME_SYSTEM":"UTC","ELEMENT_SET_NO":"999","TLE_LINE2":"2 51465  53.2147 250.1795 0000456  65.2024 294.9015 15.08849350 70918"},{"FILE":"3904305","MEAN_MOTION_DOT":"0.00004192","LAUNCH_DATE":"2022-02-03","TIME_SYSTEM":"UTC","ELEMENT_SET_NO":"999","MEAN_ANOMALY":"284.4165","MEAN_ELEMENT_THEORY":"SGP4","TLE_LINE2":"2 51467  53.2158 250.2634 0001096  75.6948 284.4165 15.08846890 70103","OBJECT_TYPE":"PAYLOAD","EPOCH":"2023-05-08T14:37:46.573248","INCLINATION":"53.2158","SEMIMAJOR_AXIS":"6917.859","COUNTRY_CODE":"US","CLASSIFICATION_TYPE":"U","EPHEMERIS_TYPE":"0","CENTER_NAME":"EARTH","MEAN_MOTION_DDOT":"0.0000000000000","OBJECT_NAME":"STARLINK-3178","RA_OF_ASC_NODE":"250.2634","BSTAR":"0.00028126000000","ECCENTRICITY":"0.00010960","ARG_OF_PERICENTER":"75.6948","SITE":"AFETR","MEAN_MOTION":"15.08846890","NORAD_CAT_ID":"51467","REV_AT_EPOCH":"7010","OBJECT_ID":"2022-010M","REF_FRAME":"TEME","PERIOD":"95.437","RCS_SIZE":"LARGE","TLE_LINE1":"1 51467U 22010M   23128.60956682  .00004192  00000-0  28126-3 0  9994","GP_ID":"231476128","PERIAPSIS":"538.966","DECAY_DATE":null,"APOAPSIS":"540.483"},{"TLE_LINE2":"2 51468  53.2169 250.2203 0000839  74.2844 285.8241 15.08838593 70103","LAUNCH_DATE":"2022-02-03","TIME_SYSTEM":"UTC","MEAN_ANOMALY":"285.8241","MEAN_ELEMENT_THEORY":"SGP4","ELEMENT_SET_NO":"999","MEAN_MOTION_DOT":"0.00001137","FILE":"3904305","CENTER_NAME":"EARTH","EPHEMERIS_TYPE":"0","COUNTRY_CODE":"US","CLASSIFICATION_TYPE":"U","SEMIMAJOR_AXIS":"6917.885","INCLINATION":"53.2169","EPOCH":"2023-05-08T14:55:02.991360","OBJECT_TYPE":"PAYLOAD","ECCENTRICITY":"0.00008390","BSTAR":"0.00008948900000","OBJECT_NAME":"STARLINK-3174","RA_OF_ASC_NODE":"250.2203","MEAN_MOTION_DDOT":"0.0000000000000","APOAPSIS":"540.330","DECAY_DATE":null,"GP_ID":"231474880","TLE_LINE1":"1 51468U 22010N   23128.62156240  .00001137  00000-0  89489-4 0  9995","PERIAPSIS":"539.169","REF_FRAME":"TEME","PERIOD":"95.438","RCS_SIZE":"LARGE","OBJECT_ID":"2022-010N","REV_AT_EPOCH":"7010","MEAN_MOTION":"15.08838593","NORAD_CAT_ID":"51468","SITE":"AFETR","ARG_OF_PERICENTER":"74.2844"},{"TLE_LINE1":"1 51469U 22010P   23128.63532889  .00021579  00000-0  13686-2 0  9990","PERIAPSIS":"539.354","GP_ID":"231475125","PERIOD":"95.436","RCS_SIZE":"LARGE","REF_FRAME":"TEME","APOAPSIS":"539.944","DECAY_DATE":null,"NORAD_CAT_ID":"51469","MEAN_MOTION":"15.08871518","SITE":"AFETR","ARG_OF_PERICENTER":"84.3635","OBJECT_ID":"2022-010P","REV_AT_EPOCH":"7041","OBJECT_NAME":"STARLINK-3182","RA_OF_ASC_NODE":"250.1458","ECCENTRICITY":"0.00004260","BSTAR":"0.00136860000000","MEAN_MOTION_DDOT":"0.0000000000000","CLASSIFICATION_TYPE":"U","COUNTRY_CODE":"US","SEMIMAJOR_AXIS":"6917.784","CENTER_NAME":"EARTH","EPHEMERIS_TYPE":"0","OBJECT_TYPE":"PAYLOAD","EPOCH":"2023-05-08T15:14:52.416096","INCLINATION":"53.2157","TIME_SYSTEM":"UTC","LAUNCH_DATE":"2022-02-03","MEAN_ELEMENT_THEORY":"SGP4","MEAN_ANOMALY":"275.7406","ELEMENT_SET_NO":"999","TLE_LINE2":"2 51469  53.2157 250.1458 0000426  84.3635 275.7406 15.08871518 70413","MEAN_MOTION_DOT":"0.00021579","FILE":"3904305"},{"BSTAR":"0.00322220000000","ECCENTRICITY":"0.00042920","RA_OF_ASC_NODE":"235.1062","OBJECT_NAME":"STARLINK-3165","MEAN_MOTION_DDOT":"0.0000000000000","DECAY_DATE":null,"APOAPSIS":"485.641","RCS_SIZE":"LARGE","PERIOD":"94.259","REF_FRAME":"TEME","TLE_LINE1":"1 51471U 22010R   23128.71263087  .00089108  00000-0  32222-2 0  9992","PERIAPSIS":"479.752","GP_ID":"231475881","REV_AT_EPOCH":"7063","OBJECT_ID":"2022-010R","SITE":"AFETR","ARG_OF_PERICENTER":"289.5939","NORAD_CAT_ID":"51471","MEAN_MOTION":"15.27698358","TLE_LINE2":"2 51471  53.2209 235.1062 0004292 289.5939  70.4598 15.27698358 70635","MEAN_ELEMENT_THEORY":"SGP4","LAUNCH_DATE":"2022-02-03","TIME_SYSTEM":"UTC","MEAN_ANOMALY":"70.4598","ELEMENT_SET_NO":"999","FILE":"3904305","MEAN_MOTION_DOT":"0.00089108","EPHEMERIS_TYPE":"0","CENTER_NAME":"EARTH","SEMIMAJOR_AXIS":"6860.832","CLASSIFICATION_TYPE":"U","COUNTRY_CODE":"US","INCLINATION":"53.2209","EPOCH":"2023-05-08T17:06:11.307168","OBJECT_TYPE":"PAYLOAD"},{"RA_OF_ASC_NODE":"250.2298","OBJECT_NAME":"STARLINK-3415","BSTAR":"0.00009554400000","ECCENTRICITY":"0.00010250","MEAN_MOTION_DDOT":"0.0000000000000","PERIOD":"95.437","RCS_SIZE":"LARGE","REF_FRAME":"TEME","PERIAPSIS":"539.010","TLE_LINE1":"1 51472U 22010S   23128.61692238  .00001233  00000-0  95544-4 0  9997","GP_ID":"231475628","DECAY_DATE":null,"APOAPSIS":"540.428","ARG_OF_PERICENTER":"86.1531","SITE":"AFETR","NORAD_CAT_ID":"51472","MEAN_MOTION":"15.08848636","REV_AT_EPOCH":"7041","OBJECT_ID":"2022-010S","LAUNCH_DATE":"2022-02-03","MEAN_ELEMENT_THEORY":"SGP4","TIME_SYSTEM":"UTC","MEAN_ANOMALY":"273.9578","ELEMENT_SET_NO":"999","TLE_LINE2":"2 51472  53.2158 250.2298 0001025  86.1531 273.9578 15.08848636 70417","FILE":"3904305","MEAN_MOTION_DOT":"0.00001233","SEMIMAJOR_AXIS":"6917.854","CLASSIFICATION_TYPE":"U","COUNTRY_CODE":"US","EPHEMERIS_TYPE":"0","CENTER_NAME":"EARTH","OBJECT_TYPE":"PAYLOAD","EPOCH":"2023-05-08T14:48:22.093632","INCLINATION":"53.2158"},{"ECCENTRICITY":"0.00012270","BSTAR":"-0.00002035600000","OBJECT_NAME":"STARLINK-3528","RA_OF_ASC_NODE":"299.0286","MEAN_MOTION_DDOT":"0.0000000000000","APOAPSIS":"540.593","DECAY_DATE":null,"GP_ID":"231475132","TLE_LINE1":"1 51714U 22016A   23128.88463732 -.00000612  00000-0 -20356-4 0  9997","PERIAPSIS":"538.896","REF_FRAME":"TEME","RCS_SIZE":"LARGE","PERIOD":"95.438","OBJECT_ID":"2022-016A","REV_AT_EPOCH":"6705","MEAN_MOTION":"15.08840286","NORAD_CAT_ID":"51714","SITE":"AFETR","ARG_OF_PERICENTER":"87.7643","TLE_LINE2":"2 51714  53.2161 299.0286 0001227  87.7643 272.3490 15.08840286 67058","TIME_SYSTEM":"UTC","LAUNCH_DATE":"2022-02-21","ELEMENT_SET_NO":"999","MEAN_ELEMENT_THEORY":"SGP4","MEAN_ANOMALY":"272.3490","MEAN_MOTION_DOT":"-0.00000612","FILE":"3904305","CENTER_NAME":"EARTH","EPHEMERIS_TYPE":"0","COUNTRY_CODE":"US","CLASSIFICATION_TYPE":"U","SEMIMAJOR_AXIS":"6917.880","EPOCH":"2023-05-08T21:13:52.664448","INCLINATION":"53.2161","OBJECT_TYPE":"PAYLOAD"},{"FILE":"3904305","MEAN_MOTION_DOT":"0.00005118","MEAN_ELEMENT_THEORY":"SGP4","LAUNCH_DATE":"2022-02-21","ELEMENT_SET_NO":"999","TIME_SYSTEM":"UTC","MEAN_ANOMALY":"287.4762","TLE_LINE2":"2 51715  53.2161 299.6706 0000857  72.6324 287.4762 15.08851463 68160","OBJECT_TYPE":"PAYLOAD","INCLINATION":"53.2161","EPOCH":"2023-05-08T17:47:13.060896","SEMIMAJOR_AXIS":"6917.845","COUNTRY_CODE":"US","CLASSIFICATION_TYPE":"U","EPHEMERIS_TYPE":"0","CENTER_NAME":"EARTH","MEAN_MOTION_DDOT":"0.0000000000000","RA_OF_ASC_NODE":"299.6706","OBJECT_NAME":"STARLINK-3533","BSTAR":"0.00033928000000","ECCENTRICITY":"0.00008570","ARG_OF_PERICENTER":"72.6324","SITE":"AFETR","MEAN_MOTION":"15.08851463","NORAD_CAT_ID":"51715","REV_AT_EPOCH":"6816","OBJECT_ID":"2022-016B","REF_FRAME":"TEME","RCS_SIZE":"LARGE","PERIOD":"95.437","GP_ID":"231475888","TLE_LINE1":"1 51715U 22016B   23128.74112339  .00005118  00000-0  33928-3 0  9999","PERIAPSIS":"539.117","DECAY_DATE":null,"APOAPSIS":"540.303"},{"APOAPSIS":"540.456","DECAY_DATE":null,"GP_ID":"231475635","TLE_LINE1":"1 51716U 22016C   23128.88096064  .00002571  00000-0  17950-3 0  9998","PERIAPSIS":"538.961","PERIOD":"95.437","RCS_SIZE":"LARGE","REF_FRAME":"TEME","OBJECT_ID":"2022-016C","REV_AT_EPOCH":"6705","NORAD_CAT_ID":"51716","MEAN_MOTION":"15.08852107","SITE":"AFETR","ARG_OF_PERICENTER":"86.9000","ECCENTRICITY":"0.00010800","BSTAR":"0.00017950000000","OBJECT_NAME":"STARLINK-3543","RA_OF_ASC_NODE":"299.0449","MEAN_MOTION_DDOT":"0.0000000000000","CENTER_NAME":"EARTH","EPHEMERIS_TYPE":"0","CLASSIFICATION_TYPE":"U","COUNTRY_CODE":"US","SEMIMAJOR_AXIS":"6917.843","INCLINATION":"53.2166","EPOCH":"2023-05-08T21:08:34.999296","OBJECT_TYPE":"PAYLOAD","TLE_LINE2":"2 51716  53.2166 299.0449 0001080  86.9000 273.2116 15.08852107 67051","TIME_SYSTEM":"UTC","LAUNCH_DATE":"2022-02-21","MEAN_ANOMALY":"273.2116","MEAN_ELEMENT_THEORY":"SGP4","ELEMENT_SET_NO":"999","MEAN_MOTION_DOT":"0.00002571","FILE":"3904305"}];
